[{"OBJECT_NAME":"HAWK-6A","OBJECT_ID":"2023-011D","EPOCH":"2026-02-01T18:31:42.533184","MEAN_MOTION":15.21390367,"ECCENTRICITY":0.00021351,"INCLINATION":40.4993,"RA_OF_ASC_NODE":59.5397,"ARG_OF_PERICENTER":186.6714,"MEAN_ANOMALY":173.4066,"EPHEMERIS_TYPE":0,"CLASSIFICATION_TYPE":"U","NORAD_CAT_ID":55327,"ELEMENT_SET_NO":999,"REV_AT_EPOCH":16721,"BSTAR":0.00024899272,"MEAN_MOTION_DOT":5.513e-5,"MEAN_MOTION_DDOT":0},{"OBJECT_NAME":"HAWK-7A","OBJECT_ID":"2023-054P","EPOCH":"2026-02-01T15:32:28.216320","MEAN_MOTION":15.27853471,"ECCENTRICITY":0.00075053,"INCLINATION":97.2894,"RA_OF_ASC_NODE":283.3718,"ARG_OF_PERICENTER":214.3564,"MEAN_ANOMALY":145.7191,"EPHEMERIS_TYPE":0,"CLASSIFICATION_TYPE":"U","NORAD_CAT_ID":56191,"ELEMENT_SET_NO":999,"REV_AT_EPOCH":15634,"BSTAR":0.00025367214,"MEAN_MOTION_DOT":6.831e-5,"MEAN_MOTION_DDOT":0},{"OBJECT_NAME":"HAWK-7B","OBJECT_ID":"2023-054R","EPOCH":"2026-02-01T21:49:28.005024","MEAN_MOTION":15.27814223,"ECCENTRICITY":0.0008102,"INCLINATION":97.2919,"RA_OF_ASC_NODE":281.8406,"ARG_OF_PERICENTER":220.4508,"MEAN_ANOMALY":139.613,"EPHEMERIS_TYPE":0,"CLASSIFICATION_TYPE":"U","NORAD_CAT_ID":56193,"ELEMENT_SET_NO":999,"REV_AT_EPOCH":15638,"BSTAR":0.00025921769,"MEAN_MOTION_DOT":6.974e-5,"MEAN_MOTION_DDOT":0},{"OBJECT_NAME":"HAWK-7C","OBJECT_ID":"2023-054Y","EPOCH":"2026-02-01T21:49:10.921152","MEAN_MOTION":15.27855864,"ECCENTRICITY":0.00072728,"INCLINATION":97.2901,"RA_OF_ASC_NODE":282.6523,"ARG_OF_PERICENTER":218.6417,"MEAN_ANOMALY":141.4303,"EPHEMERIS_TYPE":0,"CLASSIFICATION_TYPE":"U","NORAD_CAT_ID":56200,"ELEMENT_SET_NO":999,"REV_AT_EPOCH":15638,"BSTAR":0.00025185925,"MEAN_MOTION_DOT":6.782e-5,"MEAN_MOTION_DDOT":0}]
