HAWK-6A                 
1 55327U 23011D   26032.77202006  .00005513  00000+0  24899-3 0  9994
2 55327  40.4993  59.5397 0002135 186.6714 173.4066 15.21390367167216
HAWK-7A                 
1 56191U 23054P   26032.64754880  .00006831  00000+0  25367-3 0  9994
2 56191  97.2894 283.3718 0007505 214.3564 145.7191 15.27853471156347
HAWK-7B                 
1 56193U 23054R   26032.90935191  .00006974  00000+0  25922-3 0  9996
2 56193  97.2919 281.8406 0008102 220.4508 139.6130 15.27814223156385
HAWK-7C                 
1 56200U 23054Y   26032.90915418  .00006782  00000+0  25186-3 0  9994
2 56200  97.2901 282.6523 0007272 218.6417 141.4303 15.27855864156388
